{
    "links": {
        "self": "http://www.neowsapp.com/rest/v1/neo/3843705?api_key=iIulBulltgU6a56xZRHN4H3l9WmuAYTsLGpBGhQ2"
    },
    "id": "3843705",
    "neo_reference_id": "3843705",
    "name": "(2019 QG6)",
    "designation": "2019 QG6",
    "nasa_jpl_url": "http://ssd.jpl.nasa.gov/sbdb.cgi?sstr=3843705",
    "absolute_magnitude_h": 25.7,
    "estimated_diameter": {
        "kilometers": {
            "estimated_diameter_min": 0.0192555078,
            "estimated_diameter_max": 0.0430566244
        },
        "meters": {
            "estimated_diameter_min": 19.2555078188,
            "estimated_diameter_max": 43.0566244241
        },
        "miles": {
            "estimated_diameter_min": 0.0119648141,
            "estimated_diameter_max": 0.0267541378
        },
        "feet": {
            "estimated_diameter_min": 63.1742402722,
            "estimated_diameter_max": 141.2618956756
        }
    },
    "is_potentially_hazardous_asteroid": false,
    "close_approach_data": [
        {
            "close_approach_date": "2019-08-13",
            "close_approach_date_full": "2019-Aug-13 17:23",
            "epoch_date_close_approach": 1565716980000,
            "relative_velocity": {
                "kilometers_per_second": "4.4888318951",
                "kilometers_per_hour": "16159.7948225319",
                "miles_per_hour": "10041.068066256"
            },
            "miss_distance": {
                "astronomical": "0.0475445257",
                "lunar": "18.4948204973",
                "kilometers": "7112559.774880259",
                "miles": "4419539.7073312142"
            },
            "orbiting_body": "Earth"
        },
        {
            "close_approach_date": "2112-07-20",
            "close_approach_date_full": "2112-Jul-20 01:32",
            "epoch_date_close_approach": 4498421520000,
            "relative_velocity": {
                "kilometers_per_second": "8.7264056087",
                "kilometers_per_hour": "31415.0601913508",
                "miles_per_hour": "19520.0967061202"
            },
            "miss_distance": {
                "astronomical": "0.1872876748",
                "lunar": "72.8549054972",
                "kilometers": "28017837.227332676",
                "miles": "17409476.7648998888"
            },
            "orbiting_body": "Earth"
        }
    ],
    "orbital_data": {
        "orbit_id": "1",
        "orbit_determination_date": "2019-08-31 06:25:37",
        "first_observation_date": "2019-08-28",
        "last_observation_date": "2019-08-30",
        "data_arc_in_days": 2,
        "observations_used": 13,
        "orbit_uncertainty": "8",
        "minimum_orbit_intersection": ".0472372",
        "jupiter_tisserand_invariant": "4.508",
        "epoch_osculation": "2458724.5",
        "eccentricity": ".2907461161688737",
        "semi_major_axis": "1.491989283603679",
        "inclination": "5.233174875786919",
        "ascending_node_longitude": "134.1039960009115",
        "orbital_period": "665.6516035124903",
        "perihelion_distance": "1.058199194030329",
        "perihelion_argument": "191.9925537998208",
        "aphelion_distance": "1.925779373177029",
        "perihelion_time": "2458714.961634768127",
        "mean_anomaly": "5.158571639210132",
        "mean_motion": ".5408234549430406",
        "equinox": "J2000",
        "orbit_class": {
            "orbit_class_type": "AMO",
            "orbit_class_description": "Near-Earth asteroid orbits similar to that of 1221 Amor",
            "orbit_class_range": "1.017 AU < q (perihelion) < 1.3 AU"
        }
    },
    "is_sentry_object": false
}